METHANESAT              
1 59101U 24043D   25174.80768669  .00001396  00000+0  13154-3 0  9993
2 59101  97.8013 300.8426 0012103 123.7505 236.4871 14.95391183 71046
